{
  "type": "FeatureCollection",
  "features": [
    {
      "type": "Feature",
      "properties": {
        "norad_id": 66976,
        "name": "STARLINK-35772",
        "group": "last-30-days",
        "lat": -0.6705851989965146,
        "lon": -55.09274613499536,
        "alt_km": 338.60425871076404,
        "timestamp": "2025-12-19T18:58:40.330132+00:00",
        "meta_object_name": "STARLINK-35772",
        "meta_object_id": "2025-288T",
        "meta_epoch": "2025-12-19T06:02:25.830240",
        "meta_mean_motion": 15.75253336,
        "meta_eccentricity": 0.00080064,
        "meta_inclination": 43.0017,
        "meta_ra_of_asc_node": 127.4603,
        "meta_arg_of_pericenter": 208.8618,
        "meta_mean_anomaly": 151.181,
        "meta_ephemeris_type": 0,
        "meta_classification_type": "U",
        "meta_norad_cat_id": 66976,
        "meta_element_set_no": 999,
        "meta_rev_at_epoch": 287,
        "meta_bstar": 0.001331003,
        "meta_mean_motion_dot": 0.00211472,
        "meta_mean_motion_ddot": 0,
        "tle_line1": "1 66976U 25288T   25353.25168785  .00211472  00000+0  13310-2 0  9995",
        "tle_line2": "2 66976  43.0017 127.4603 0008006 208.8618 151.1810 15.75253336  2875"
      },
      "geometry": {
        "type": "Point",
        "coordinates": [
          -55.09274613499536,
          -0.6705851989965146
        ]
      }
    },
    {
      "type": "Feature",
      "properties": {
        "norad_id": 66977,
        "name": "STARLINK-35770",
        "group": "last-30-days",
        "lat": -38.0924004874425,
        "lon": 66.63934569646476,
        "alt_km": 324.9981506990189,
        "timestamp": "2025-12-19T18:58:40.330142+00:00",
        "meta_object_name": "STARLINK-35770",
        "meta_object_id": "2025-288U",
        "meta_epoch": "2025-12-19T00:00:02.000160",
        "meta_mean_motion": 15.84996764,
        "meta_eccentricity": 0.00016691,
        "meta_inclination": 43.0017,
        "meta_ra_of_asc_node": 128.7645,
        "meta_arg_of_pericenter": 281.1558,
        "meta_mean_anomaly": 180.273,
        "meta_ephemeris_type": 0,
        "meta_classification_type": "U",
        "meta_norad_cat_id": 66977,
        "meta_element_set_no": 999,
        "meta_rev_at_epoch": 283,
        "meta_bstar": -0.00689093,
        "meta_mean_motion_dot": -0.01480411,
        "meta_mean_motion_ddot": 0,
        "tle_line1": "1 66977U 25288U   25353.00002315 -.01480411  00000+0 -68909-2 0  9993",
        "tle_line2": "2 66977  43.0017 128.7645 0001669 281.1558 180.2730 15.84996764  2830"
      },
      "geometry": {
        "type": "Point",
        "coordinates": [
          66.63934569646476,
          -38.0924004874425
        ]
      }
    },
    {
      "type": "Feature",
      "properties": {
        "norad_id": 66978,
        "name": "STARLINK-35787",
        "group": "last-30-days",
        "lat": -35.44764263118599,
        "lon": 74.07488708568181,
        "alt_km": 324.90709208749286,
        "timestamp": "2025-12-19T18:58:40.330152+00:00",
        "meta_object_name": "STARLINK-35787",
        "meta_object_id": "2025-288V",
        "meta_epoch": "2025-12-19T00:00:02.000160",
        "meta_mean_motion": 15.85024092,
        "meta_eccentricity": 0.00016754,
        "meta_inclination": 43.002,
        "meta_ra_of_asc_node": 128.7479,
        "meta_arg_of_pericenter": 283.7714,
        "meta_mean_anomaly": 184.1739,
        "meta_ephemeris_type": 0,
        "meta_classification_type": "U",
        "meta_norad_cat_id": 66978,
        "meta_element_set_no": 999,
        "meta_rev_at_epoch": 283,
        "meta_bstar": -0.0070012601,
        "meta_mean_motion_dot": -0.01503113,
        "meta_mean_motion_ddot": 0,
        "tle_line1": "1 66978U 25288V   25353.00002315 -.01503113  00000+0 -70013-2 0  9998",
        "tle_line2": "2 66978  43.0020 128.7479 0001675 283.7714 184.1739 15.85024092  2838"
      },
      "geometry": {
        "type": "Point",
        "coordinates": [
          74.07488708568181,
          -35.44764263118599
        ]
      }
    },
    {
      "type": "Feature",
      "properties": {
        "norad_id": 66979,
        "name": "STARLINK-36107",
        "group": "last-30-days",
        "lat": -34.26929265805709,
        "lon": 76.8970386090007,
        "alt_km": 325.00590772437226,
        "timestamp": "2025-12-19T18:58:40.330162+00:00",
        "meta_object_name": "STARLINK-36107",
        "meta_object_id": "2025-288W",
        "meta_epoch": "2025-12-19T00:00:02.000160",
        "meta_mean_motion": 15.85004398,
        "meta_eccentricity": 0.00016054,
        "meta_inclination": 43.0019,
        "meta_ra_of_asc_node": 128.7411,
        "meta_arg_of_pericenter": 282.9094,
        "meta_mean_anomaly": 187.7165,
        "meta_ephemeris_type": 0,
        "meta_classification_type": "U",
        "meta_norad_cat_id": 66979,
        "meta_element_set_no": 999,
        "meta_rev_at_epoch": 283,
        "meta_bstar": -0.0070464694,
        "meta_mean_motion_dot": -0.01510336,
        "meta_mean_motion_ddot": 0,
        "tle_line1": "1 66979U 25288W   25353.00002315 -.01510336  00000+0 -70465-2 0  9995",
        "tle_line2": "2 66979  43.0019 128.7411 0001605 282.9094 187.7165 15.85004398  2837"
      },
      "geometry": {
        "type": "Point",
        "coordinates": [
          76.8970386090007,
          -34.26929265805709
        ]
      }
    },
    {
      "type": "Feature",
      "properties": {
        "norad_id": 66980,
        "name": "STARLINK-36086",
        "group": "last-30-days",
        "lat": -33.18274864948913,
        "lon": 79.30812811695897,
        "alt_km": 325.0593578619446,
        "timestamp": "2025-12-19T18:58:40.330174+00:00",
        "meta_object_name": "STARLINK-36086",
        "meta_object_id": "2025-288X",
        "meta_epoch": "2025-12-19T00:00:02.000160",
        "meta_mean_motion": 15.85010159,
        "meta_eccentricity": 0.00015433,
        "meta_inclination": 43.0019,
        "meta_ra_of_asc_node": 128.7351,
        "meta_arg_of_pericenter": 281.5171,
        "meta_mean_anomaly": 191.4101,
        "meta_ephemeris_type": 0,
        "meta_classification_type": "U",
        "meta_norad_cat_id": 66980,
        "meta_element_set_no": 999,
        "meta_rev_at_epoch": 283,
        "meta_bstar": -0.0071067803,
        "meta_mean_motion_dot": -0.01522052,
        "meta_mean_motion_ddot": 0,
        "tle_line1": "1 66980U 25288X   25353.00002315 -.01522052  00000+0 -71068-2 0  9995",
        "tle_line2": "2 66980  43.0019 128.7351 0001543 281.5171 191.4101 15.85010159  2838"
      },
      "geometry": {
        "type": "Point",
        "coordinates": [
          79.30812811695897,
          -33.18274864948913
        ]
      }
    },
    {
      "type": "Feature",
      "properties": {
        "norad_id": 66981,
        "name": "STARLINK-36142",
        "group": "last-30-days",
        "lat": -30.101584286801966,
        "lon": 85.39099992170688,
        "alt_km": 315.25804923517535,
        "timestamp": "2025-12-19T18:58:40.330184+00:00",
        "meta_object_name": "STARLINK-36142",
        "meta_object_id": "2025-288Y",
        "meta_epoch": "2025-12-19T07:04:51.911328",
        "meta_mean_motion": 15.85100065,
        "meta_eccentricity": 0.00071111,
        "meta_inclination": 43.002,
        "meta_ra_of_asc_node": 126.9138,
        "meta_arg_of_pericenter": 243.4048,
        "meta_mean_anomaly": 116.6097,
        "meta_ephemeris_type": 0,
        "meta_classification_type": "U",
        "meta_norad_cat_id": 66981,
        "meta_element_set_no": 999,
        "meta_rev_at_epoch": 288,
        "meta_bstar": 0.0022152731,
        "meta_mean_motion_dot": 0.00577099,
        "meta_mean_motion_ddot": 0,
        "tle_line1": "1 66981U 25288Y   25353.29504527  .00577099  00000+0  22153-2 0  9998",
        "tle_line2": "2 66981  43.0020 126.9138 0007111 243.4048 116.6097 15.85100065  2885"
      },
      "geometry": {
        "type": "Point",
        "coordinates": [
          85.39099992170688,
          -30.101584286801966
        ]
      }
    },
    {
      "type": "Feature",
      "properties": {
        "norad_id": 66982,
        "name": "STARLINK-36113",
        "group": "last-30-days",
        "lat": -28.90453369807471,
        "lon": 87.5189033403164,
        "alt_km": 315.57282421967375,
        "timestamp": "2025-12-19T18:58:40.330196+00:00",
        "meta_object_name": "STARLINK-36113",
        "meta_object_id": "2025-288Z",
        "meta_epoch": "2025-12-19T07:04:18.749280",
        "meta_mean_motion": 15.85106335,
        "meta_eccentricity": 0.00054509,
        "meta_inclination": 43.0015,
        "meta_ra_of_asc_node": 126.9099,
        "meta_arg_of_pericenter": 245.8954,
        "meta_mean_anomaly": 114.1349,
        "meta_ephemeris_type": 0,
        "meta_classification_type": "U",
        "meta_norad_cat_id": 66982,
        "meta_element_set_no": 999,
        "meta_rev_at_epoch": 288,
        "meta_bstar": 0.0022556951,
        "meta_mean_motion_dot": 0.00588297,
        "meta_mean_motion_ddot": 0,
        "tle_line1": "1 66982U 25288Z   25353.29466145  .00588297  00000+0  22557-2 0  9992",
        "tle_line2": "2 66982  43.0015 126.9099 0005450 245.8954 114.1349 15.85106335  2881"
      },
      "geometry": {
        "type": "Point",
        "coordinates": [
          87.5189033403164,
          -28.90453369807471
        ]
      }
    }
  ]
}